OBJECT_NAME,OBJECT_ID,EPOCH,MEAN_MOTION,ECCENTRICITY,INCLINATION,RA_OF_ASC_NODE,ARG_OF_PERICENTER,MEAN_ANOMALY,EPHEMERIS_TYPE,CLASSIFICATION_TYPE,NORAD_CAT_ID,ELEMENT_SET_NO,REV_AT_EPOCH,BSTAR,MEAN_MOTION_DOT,MEAN_MOTION_DDOT
OCEANSAT-2,2009-051A,2026-07-02T18:48:13.398624,13.99659127,.0016484,98.2326,169.0782,189.6271,170.4582,0,U,35931,999,88151,-.12729E-3,-.224E-5,0
WORLDVIEW-2 (WV-2),2009-055A,2026-07-02T18:01:31.126944,14.37904081,.0004694,98.4762,256.9880,161.2519,198.8842,0,U,35946,999,87788,.68215E-4,.162E-5,0
SMOS,2009-059A,2026-07-02T18:09:21.848832,14.39781159,.0001306,98.4426,10.8633,87.1942,272.9395,0,U,36036,999,87569,.10645E-3,.29E-5,0
YAOGAN-7,2009-069A,2026-07-02T15:49:47.178048,14.78025724,.0024437,98.0051,69.4298,352.8193,7.2664,0,U,36110,999,89191,.87169E-4,.579E-5,0
TANDEM-X,2010-030A,2026-07-01T14:48:18.164160,15.19152803,.00017924,97.4457,190.1177,96.8129,263.3310,0,U,36605,999,88883,.31705549E-4,.599E-5,0
CARTOSAT-2B,2010-035A,2026-07-02T18:26:33.668736,14.78604056,.0012065,97.9943,234.2185,135.1529,225.0659,0,U,36795,999,86215,.12689E-3,.877E-5,0
YAOGAN-10,2010-038A,2026-07-02T18:54:22.660992,14.85398124,.0001757,97.8967,207.0675,85.1359,30.1710,0,U,36834,999,85952,.25087E-3,.2106E-4,0
COSMO-SKYMED 4,2010-060A,2026-07-02T20:04:03.334080,14.82158211,.0001462,97.8884,7.2088,83.5240,276.6140,0,U,37216,999,84688,.52861E-4,.369E-5,0
RESOURCESAT-2,2011-015A,2026-07-02T18:49:31.211328,14.21603694,.0010849,98.7638,251.1180,206.9048,153.1567,0,U,37387,999,78839,.71196E-4,.112E-5,0
HAIYANG-2A,2011-043A,2026-07-02T20:07:01.013952,13.73853213,.0004381,99.3384,186.1623,61.7682,298.3908,0,U,37781,999,74880,.44887E-4,-.1E-7,0
RASAT,2011-044D,2026-07-02T20:48:46.887840,14.68182474,.0021344,98.0585,275.0250,139.6106,359.1312,0,U,37791,999,79548,.14047E-3,.762E-5,0
SRMSAT,2011-058D,2026-07-02T13:30:11.390112,14.11578853,.0011821,19.9731,326.4081,13.5504,59.6043,0,U,37841,999,75999,.72828E-4,.399E-5,0
PLEIADES 1A,2011-076F,2026-07-02T20:23:27.275136,14.58540456,.0001761,98.1977,258.7419,86.7315,48.8719,0,U,38012,999,77427,.71125E-4,.285E-5,0
ZIYUAN 1-02C (ZY 1-02C),2011-079A,2026-07-02T21:06:06.679872,14.38226959,.000513,98.4068,250.8595,259.6195,219.9586,0,U,38038,999,76146,.13824E-3,.377E-5,0
ARIRANG-3 (KOMPSAT-3),2012-025B,2026-07-02T20:09:45.112608,14.62220329,.0006746,98.1178,141.0305,70.3879,289.8050,0,U,38338,999,75363,.11088E-3,.512E-5,0
EXACTVIEW-1 (ADS-1B),2012-039C,2026-07-02T19:53:17.037888,14.24989404,.0011811,98.9796,301.5734,123.9603,236.2700,0,U,38709,999,72493,.88219E-4,.16E-5,0
SPOT 6,2012-047A,2026-07-02T20:08:19.314816,14.58532030,.0001244,98.2116,250.9646,76.8641,283.2697,0,U,38755,999,73533,.88016E-4,.363E-5,0
PLEIADES 1B,2012-068A,2026-07-02T20:35:15.296352,14.58569974,.00017,98.1948,258.6937,83.5378,276.6015,0,U,39019,999,72313,.71217E-4,.285E-5,0
GOKTURK 2,2012-073A,2026-07-02T19:31:12.264960,14.75558856,.0001023,97.6808,20.4608,62.7872,297.3443,0,U,39030,999,72681,.91017E-4,.573E-5,0
LANDSAT 8,2013-008A,2026-07-02T19:39:09.223200,14.57105324,.0001352,98.2296,253.7681,93.5087,266.6266,0,U,39084,999,70017,.10048E-3,.407E-5,0
SARAL,2013-009A,2026-07-02T19:44:34.487232,14.32893194,.0000957,98.5552,10.1920,206.8269,153.2866,0,U,39086,999,69784,-.4226E-5,-.55E-6,0
GAOFEN-1,2013-018A,2026-07-02T20:28:00.394176,14.76507144,.0016015,97.9093,255.6024,211.9698,148.0542,0,U,39150,999,71055,.10455E-3,.679E-5,0
VNREDSAT 1,2013-021B,2026-07-02T20:49:43.849632,14.64873395,.0001694,97.9071,236.6820,81.3564,278.7831,0,U,39160,999,70258,.13755E-3,.69E-5,0
ARIRANG-5 (KOMPSAT-5),2013-042A,2026-07-02T19:05:39.832224,15.04544690,.0005174,97.6199,10.2754,85.0604,275.1212,0,U,39227,999,70620,.18655E-3,.2554E-4,0
SKYSAT-A,2013-066C,2026-07-02T14:25:01.007040,15.13058802,.001972,97.3803,232.5070,259.8177,100.0830,0,U,39418,999,69081,.19977E-3,.3484E-4,0
DUBAISAT-2,2013-066D,2026-07-02T21:44:49.449696,15.10301052,.0010573,97.4573,173.6392,349.1604,10.9396,0,U,39419,999,68876,.26108E-3,.4219E-4,0
GPM-CORE,2014-009C,2026-07-02T17:56:09.257568,15.44894510,.0011243,64.9710,256.0031,257.8826,102.1056,0,U,39574,999,70021,.22559E-3,.1044E-3,0
SENTINEL-1A,2014-016A,2026-07-02T20:45:03.703680,14.59199242,.0001395,98.1774,191.1683,85.4178,274.7181,0,U,39634,999,65230,-.16902E-4,-.125E-5,0
KAZEOSAT 1,2014-024A,2026-07-02T20:11:33.224928,14.42085928,.0001153,98.3205,255.8992,77.6581,282.4738,0,U,39731,999,64081,.5959E-4,.153E-5,0
ALOS-2,2014-029A,2026-07-02T19:55:11.607744,14.79471535,.0001616,97.9231,280.7697,90.0976,270.0420,0,U,39766,999,65389,.15289E-3,.1091E-4,0
KAZEOSAT 2,2014-033A,2026-07-02T20:34:51.763584,14.85490902,.0006934,97.5395,22.6409,268.7994,91.2427,0,U,40010,999,65128,.15351E-3,.1275E-4,0
