OCEANSAT-2              
1 35931U 09051A   26183.78348841 -.00000224  00000+0 -12729-3 0  9992
2 35931  98.2326 169.0782 0016484 189.6271 170.4582 13.99659127881515
WORLDVIEW-2 (WV-2)      
1 35946U 09055A   26183.75105471  .00000162  00000+0  68215-4 0  9990
2 35946  98.4762 256.9880 0004694 161.2519 198.8842 14.37904081877886
SMOS                    
1 36036U 09059A   26183.75650288  .00000290  00000+0  10645-3 0  9991
2 36036  98.4426  10.8633 0001306  87.1942 272.9395 14.39781159875695
YAOGAN-7                
1 36110U 09069A   26183.65957382  .00000579  00000+0  87169-4 0  9995
2 36110  98.0051  69.4298 0024437 352.8193   7.2664 14.78025724891918
TANDEM-X                
1 36605U 10030A   26182.61687690  .00000599  00000+0  31706-4 0  9999
2 36605  97.4457 190.1177 0001792  96.8129 263.3310 15.19152803888836
CARTOSAT-2B             
1 36795U 10035A   26183.76844524  .00000877  00000+0  12689-3 0  9999
2 36795  97.9943 234.2185 0012065 135.1529 225.0659 14.78604056862150
YAOGAN-10               
1 36834U 10038A   26183.78776228  .00002106  00000+0  25087-3 0  9996
2 36834  97.8967 207.0675 0001757  85.1359  30.1710 14.85398124859526
COSMO-SKYMED 4          
1 37216U 10060A   26183.83614970  .00000369  00000+0  52861-4 0  9997
2 37216  97.8884   7.2088 0001462  83.5240 276.6140 14.82158211846888
RESOURCESAT-2           
1 37387U 11015A   26183.78438902  .00000112  00000+0  71196-4 0  9998
2 37387  98.7638 251.1180 0010849 206.9048 153.1567 14.21603694788399
HAIYANG-2A              
1 37781U 11043A   26183.83820618 -.00000001  00000+0  44887-4 0  9997
2 37781  99.3384 186.1623 0004381  61.7682 298.3908 13.73853213748809
RASAT                   
1 37791U 11044D   26183.86720935  .00000762  00000+0  14047-3 0  9990
2 37791  98.0585 275.0250 0021344 139.6106 359.1312 14.68182474795487
SRMSAT                  
1 37841U 11058D   26183.56263183  .00000399  00000+0  72828-4 0  9993
2 37841  19.9731 326.4081 0011821  13.5504  59.6043 14.11578853759999
PLEIADES 1A             
1 38012U 11076F   26183.84962124  .00000285  00000+0  71125-4 0  9999
2 38012  98.1977 258.7419 0001761  86.7315  48.8719 14.58540456774274
ZIYUAN 1-02C (ZY 1-02C) 
1 38038U 11079A   26183.87924398  .00000377  00000+0  13824-3 0  9997
2 38038  98.4068 250.8595 0005130 259.6195 219.9586 14.38226959761462
ARIRANG-3 (KOMPSAT-3)   
1 38338U 12025B   26183.84010547  .00000512  00000+0  11088-3 0  9992
2 38338  98.1178 141.0305 0006746  70.3879 289.8050 14.62220329753639
EXACTVIEW-1 (ADS-1B)    
1 38709U 12039C   26183.82866942  .00000160  00000+0  88219-4 0  9995
2 38709  98.9796 301.5734 0011811 123.9603 236.2700 14.24989404724936
SPOT 6                  
1 38755U 12047A   26183.83911244  .00000363  00000+0  88016-4 0  9992
2 38755  98.2116 250.9646 0001244  76.8641 283.2697 14.58532030735331
PLEIADES 1B             
1 39019U 12068A   26183.85781593  .00000285  00000+0  71217-4 0  9991
2 39019  98.1948 258.6937 0001700  83.5378 276.6015 14.58569974723136
GOKTURK 2               
1 39030U 12073A   26183.81333640  .00000573  00000+0  91017-4 0  9992
2 39030  97.6808  20.4608 0001023  62.7872 297.3443 14.75558856726813
LANDSAT 8               
1 39084U 13008A   26183.81885675  .00000407  00000+0  10048-3 0  9990
2 39084  98.2296 253.7681 0001352  93.5087 266.6266 14.57105324700178
SARAL                   
1 39086U 13009A   26183.82262138 -.00000055  00000+0 -42260-5 0  9991
2 39086  98.5552  10.1920 0000957 206.8269 153.2866 14.32893194697848
GAOFEN-1                
1 39150U 13018A   26183.85278234  .00000679  00000+0  10455-3 0  9999
2 39150  97.9093 255.6024 0016015 211.9698 148.0542 14.76507144710551
VNREDSAT 1              
1 39160U 13021B   26183.86786863  .00000690  00000+0  13755-3 0  9996
2 39160  97.9071 236.6820 0001694  81.3564 278.7831 14.64873395702586
ARIRANG-5 (KOMPSAT-5)   
1 39227U 13042A   26183.79559991  .00002554  00000+0  18655-3 0  9990
2 39227  97.6199  10.2754 0005174  85.0604 275.1212 15.04544690706208
SKYSAT-A                
1 39418U 13066C   26183.60070610  .00003484  00000+0  19977-3 0  9995
2 39418  97.3803 232.5070 0019720 259.8177 100.0830 15.13058802690813
DUBAISAT-2              
1 39419U 13066D   26183.90612789  .00004219  00000+0  26108-3 0  9999
2 39419  97.4573 173.6392 0010573 349.1604  10.9396 15.10301052688768
GPM-CORE                
1 39574U 14009C   26183.74732937  .00010440  00000+0  22559-3 0  9998
2 39574  64.9710 256.0031 0011243 257.8826 102.1056 15.44894510700219
SENTINEL-1A             
1 39634U 14016A   26183.86462620 -.00000125  00000+0 -16902-4 0  9992
2 39634  98.1774 191.1683 0001395  85.4178 274.7181 14.59199242652305
KAZEOSAT 1              
1 39731U 14024A   26183.84135677  .00000153  00000+0  59590-4 0  9995
2 39731  98.3205 255.8992 0001153  77.6581 282.4738 14.42085928640812
ALOS-2                  
1 39766U 14029A   26183.82999546  .00001091  00000+0  15289-3 0  9997
2 39766  97.9231 280.7697 0001616  90.0976 270.0420 14.79471535653890
KAZEOSAT 2              
1 40010U 14033A   26183.85754356  .00001275  00000+0  15351-3 0  9991
2 40010  97.5395  22.6409 0006934 268.7994  91.2427 14.85490902651284
